start=new Date('2021-10-27T00:00:00.000Z').valueOf();
sats=[{"EPHEMERIS_TYPE":"0","PERIAPSIS":"545.962","OBJECT_ID":"2021-027AL","NORAD_CAT_ID":"48126","ARG_OF_PERICENTER":"81.0595","GP_ID":"188199534","RCS_SIZE":"LARGE","TIME_SYSTEM":"UTC","LAUNCH_DATE":"2021-04-07","MEAN_MOTION":"15.06388734","MEAN_MOTION_DOT":"0.00000660","PERIOD":"95.593","REF_FRAME":"TEME","BSTAR":"0.00006322400000","SEMIMAJOR_AXIS":"6925.383","TLE_LINE1":"1 48126U 21027AL  21298.90843233  .00000660  00000-0  63224-4 0  9990","CENTER_NAME":"EARTH","OBJECT_TYPE":"PAYLOAD","COUNTRY_CODE":"US","DECAY_DATE":null,"ELEMENT_SET_NO":"999","APOAPSIS":"548.534","FILE":"3184921","REV_AT_EPOCH":"3218","MEAN_MOTION_DDOT":"0.0000000000000","INCLINATION":"53.0518","EPOCH":"2021-10-25T21:48:08.553312","CLASSIFICATION_TYPE":"U","ECCENTRICITY":"0.00018570","MEAN_ELEMENT_THEORY":"SGP4","SITE":"AFETR","OBJECT_NAME":"STARLINK-2467","TLE_LINE2":"2 48126  53.0518 115.3621 0001857  81.0595 279.0604 15.06388734 32180","RA_OF_ASC_NODE":"115.3621","MEAN_ANOMALY":"279.0604"},{"REV_AT_EPOCH":"3156","FILE":"3185030","MEAN_MOTION_DDOT":"0.0000000000000","INCLINATION":"53.0552","ELEMENT_SET_NO":"999","APOAPSIS":"548.274","DECAY_DATE":null,"COUNTRY_CODE":"US","CENTER_NAME":"EARTH","OBJECT_TYPE":"PAYLOAD","TLE_LINE1":"1 48127U 21027AM  21299.36361629 -.00000718  00000-0 -29324-4 0  9995","BSTAR":"-0.00002932400000","SEMIMAJOR_AXIS":"6925.367","MEAN_ANOMALY":"282.5387","RA_OF_ASC_NODE":"133.3097","TLE_LINE2":"2 48127  53.0552 133.3097 0001505  77.5770 282.5387 15.06394024 31568","OBJECT_NAME":"STARLINK-2468","CLASSIFICATION_TYPE":"U","ECCENTRICITY":"0.00015050","EPOCH":"2021-10-26T08:43:36.447456","MEAN_ELEMENT_THEORY":"SGP4","SITE":"AFETR","GP_ID":"188203028","ARG_OF_PERICENTER":"77.5770","OBJECT_ID":"2021-027AM","NORAD_CAT_ID":"48127","EPHEMERIS_TYPE":"0","PERIAPSIS":"546.190","REF_FRAME":"TEME","PERIOD":"95.593","MEAN_MOTION_DOT":"-0.00000718","MEAN_MOTION":"15.06394024","RCS_SIZE":"LARGE","TIME_SYSTEM":"UTC","LAUNCH_DATE":"2021-04-07"},{"MEAN_ANOMALY":"341.5698","RA_OF_ASC_NODE":"63.2091","TLE_LINE2":"2 48128  53.0489  63.2091 0003504  18.5424 341.5698 15.19503619 32552","OBJECT_NAME":"STARLINK-2469","MEAN_ELEMENT_THEORY":"SGP4","SITE":"AFETR","ECCENTRICITY":"0.00035040","CLASSIFICATION_TYPE":"U","EPOCH":"2021-10-26T10:06:07.441344","FILE":"3185030","MEAN_MOTION_DDOT":"0.0000000000000","REV_AT_EPOCH":"3255","INCLINATION":"53.0489","APOAPSIS":"509.754","ELEMENT_SET_NO":"999","COUNTRY_CODE":"US","DECAY_DATE":null,"OBJECT_TYPE":"PAYLOAD","CENTER_NAME":"EARTH","TLE_LINE1":"1 48128U 21027AN  21299.42091946 -.00306911  00000-0 -14867-1 0  9992","SEMIMAJOR_AXIS":"6885.477","BSTAR":"-0.01486700000000","PERIOD":"94.768","REF_FRAME":"TEME","MEAN_MOTION_DOT":"-0.00306911","MEAN_MOTION":"15.19503619","LAUNCH_DATE":"2021-04-07","TIME_SYSTEM":"UTC","RCS_SIZE":"LARGE","GP_ID":"188202526","ARG_OF_PERICENTER":"18.5424","OBJECT_ID":"2021-027AN","NORAD_CAT_ID":"48128","PERIAPSIS":"504.929","EPHEMERIS_TYPE":"0"},{"CENTER_NAME":"EARTH","OBJECT_TYPE":"PAYLOAD","COUNTRY_CODE":"US","DECAY_DATE":null,"BSTAR":"0.00010944000000","SEMIMAJOR_AXIS":"6925.328","TLE_LINE1":"1 48129U 21027AP  21298.95816343  .00001349  00000-0  10944-3 0  9995","MEAN_MOTION_DDOT":"0.0000000000000","FILE":"3184921","REV_AT_EPOCH":"3190","INCLINATION":"53.0552","ELEMENT_SET_NO":"999","APOAPSIS":"548.670","TLE_LINE2":"2 48129  53.0552 135.1279 0002132  79.2622 280.8607 15.06406607 31909","ECCENTRICITY":"0.00021320","CLASSIFICATION_TYPE":"U","EPOCH":"2021-10-25T22:59:45.320352","MEAN_ELEMENT_THEORY":"SGP4","SITE":"AFETR","OBJECT_NAME":"STARLINK-2471","RA_OF_ASC_NODE":"135.1279","MEAN_ANOMALY":"280.8607","EPHEMERIS_TYPE":"0","PERIAPSIS":"545.717","GP_ID":"188199284","NORAD_CAT_ID":"48129","OBJECT_ID":"2021-027AP","ARG_OF_PERICENTER":"79.2622","TIME_SYSTEM":"UTC","RCS_SIZE":"LARGE","LAUNCH_DATE":"2021-04-07","PERIOD":"95.592","REF_FRAME":"TEME","MEAN_MOTION":"15.06406607","MEAN_MOTION_DOT":"0.00001349"},{"RA_OF_ASC_NODE":"138.6964","MEAN_ANOMALY":"277.8157","MEAN_ELEMENT_THEORY":"SGP4","SITE":"AFETR","ECCENTRICITY":"0.00014730","CLASSIFICATION_TYPE":"U","EPOCH":"2021-10-26T06:42:09.811872","OBJECT_NAME":"STARLINK-2472","TLE_LINE2":"2 48130  53.0555 138.6964 0001473  82.2999 277.8157 15.06393423 31885","APOAPSIS":"548.254","ELEMENT_SET_NO":"999","FILE":"3184921","INCLINATION":"53.0555","MEAN_MOTION_DDOT":"0.0000000000000","REV_AT_EPOCH":"3188","BSTAR":"0.00007757600000","SEMIMAJOR_AXIS":"6925.369","TLE_LINE1":"1 48130U 21027AQ  21299.27928023  .00000874  00000-0  77576-4 0  9999","OBJECT_TYPE":"PAYLOAD","CENTER_NAME":"EARTH","DECAY_DATE":null,"COUNTRY_CODE":"US","MEAN_MOTION":"15.06393423","MEAN_MOTION_DOT":"0.00000874","PERIOD":"95.593","REF_FRAME":"TEME","LAUNCH_DATE":"2021-04-07","TIME_SYSTEM":"UTC","RCS_SIZE":"LARGE","NORAD_CAT_ID":"48130","OBJECT_ID":"2021-027AQ","ARG_OF_PERICENTER":"82.2999","GP_ID":"188199035","PERIAPSIS":"546.214","EPHEMERIS_TYPE":"0"},{"TLE_LINE2":"2 48131  53.0549 115.1054 0001651  82.2901 277.8275 15.06409006 32180","OBJECT_NAME":"STARLINK-2473","ECCENTRICITY":"0.00016510","CLASSIFICATION_TYPE":"U","EPOCH":"2021-10-25T23:13:02.143488","MEAN_ELEMENT_THEORY":"SGP4","SITE":"AFETR","MEAN_ANOMALY":"277.8275","RA_OF_ASC_NODE":"115.1054","DECAY_DATE":null,"COUNTRY_CODE":"US","CENTER_NAME":"EARTH","OBJECT_TYPE":"PAYLOAD","TLE_LINE1":"1 48131U 21027AR  21298.96738592  .00002714  00000-0  20101-3 0  9991","BSTAR":"0.00020101000000","SEMIMAJOR_AXIS":"6925.321","FILE":"3184921","MEAN_MOTION_DDOT":"0.0000000000000","INCLINATION":"53.0549","REV_AT_EPOCH":"3218","ELEMENT_SET_NO":"999","APOAPSIS":"548.329","RCS_SIZE":"LARGE","TIME_SYSTEM":"UTC","LAUNCH_DATE":"2021-04-07","PERIOD":"95.592","REF_FRAME":"TEME","MEAN_MOTION_DOT":"0.00002714","MEAN_MOTION":"15.06409006","EPHEMERIS_TYPE":"0","PERIAPSIS":"546.043","GP_ID":"188200286","NORAD_CAT_ID":"48131","ARG_OF_PERICENTER":"82.2901","OBJECT_ID":"2021-027AR"},{"PERIAPSIS":"545.991","EPHEMERIS_TYPE":"0","ARG_OF_PERICENTER":"80.0093","OBJECT_ID":"2021-027AS","NORAD_CAT_ID":"48132","GP_ID":"188200033","LAUNCH_DATE":"2021-04-07","TIME_SYSTEM":"UTC","RCS_SIZE":"LARGE","MEAN_MOTION_DOT":"0.00000444","MEAN_MOTION":"15.06400747","REF_FRAME":"TEME","PERIOD":"95.592","TLE_LINE1":"1 48132U 21027AS  21299.34519844  .00000444  00000-0  48720-4 0  9998","BSTAR":"0.00004872000000","SEMIMAJOR_AXIS":"6925.346","COUNTRY_CODE":"US","DECAY_DATE":null,"OBJECT_TYPE":"PAYLOAD","CENTER_NAME":"EARTH","APOAPSIS":"548.432","ELEMENT_SET_NO":"999","FILE":"3184921","MEAN_MOTION_DDOT":"0.0000000000000","INCLINATION":"53.0554","REV_AT_EPOCH":"3195","OBJECT_NAME":"STARLINK-2474","SITE":"AFETR","MEAN_ELEMENT_THEORY":"SGP4","EPOCH":"2021-10-26T08:17:05.145216","CLASSIFICATION_TYPE":"U","ECCENTRICITY":"0.00017620","TLE_LINE2":"2 48132  53.0554 133.3947 0001762  80.0093 280.1094 15.06400747 31954","MEAN_ANOMALY":"280.1094","RA_OF_ASC_NODE":"133.3947"},{"OBJECT_NAME":"STARLINK-2475","MEAN_ELEMENT_THEORY":"SGP4","SITE":"AFETR","EPOCH":"2021-10-26T06:36:13.538880","CLASSIFICATION_TYPE":"U","ECCENTRICITY":"0.00017140","TLE_LINE2":"2 48133  53.0553 133.7089 0001714  82.0190 278.0994 15.06394098 31554","MEAN_ANOMALY":"278.0994","RA_OF_ASC_NODE":"133.7089","TLE_LINE1":"1 48133U 21027AT  21299.27515670  .00001736  00000-0  13543-3 0  9993","SEMIMAJOR_AXIS":"6925.367","BSTAR":"0.00013543000000","COUNTRY_CODE":"US","DECAY_DATE":null,"OBJECT_TYPE":"PAYLOAD","CENTER_NAME":"EARTH","APOAPSIS":"548.419","ELEMENT_SET_NO":"999","FILE":"3185046","MEAN_MOTION_DDOT":"0.0000000000000","INCLINATION":"53.0553","REV_AT_EPOCH":"3155","LAUNCH_DATE":"2021-04-07","RCS_SIZE":"LARGE","TIME_SYSTEM":"UTC","MEAN_MOTION_DOT":"0.00001736","MEAN_MOTION":"15.06394098","PERIOD":"95.593","REF_FRAME":"TEME","PERIAPSIS":"546.045","EPHEMERIS_TYPE":"0","OBJECT_ID":"2021-027AT","ARG_OF_PERICENTER":"82.0190","NORAD_CAT_ID":"48133","GP_ID":"188203215"},{"MEAN_MOTION":"15.06391930","MEAN_MOTION_DOT":"0.00000733","REF_FRAME":"TEME","PERIOD":"95.593","LAUNCH_DATE":"2021-04-07","RCS_SIZE":"LARGE","TIME_SYSTEM":"UTC","ARG_OF_PERICENTER":"80.4287","OBJECT_ID":"2021-027AU","NORAD_CAT_ID":"48134","GP_ID":"188199535","PERIAPSIS":"545.974","EPHEMERIS_TYPE":"0","RA_OF_ASC_NODE":"133.7733","MEAN_ANOMALY":"279.6908","MEAN_ELEMENT_THEORY":"SGP4","SITE":"AFETR","ECCENTRICITY":"0.00018260","CLASSIFICATION_TYPE":"U","EPOCH":"2021-10-26T06:14:59.557920","OBJECT_NAME":"STARLINK-2476","TLE_LINE2":"2 48134  53.0552 133.7733 0001826  80.4287 279.6908 15.06391930 31940","APOAPSIS":"548.503","ELEMENT_SET_NO":"999","REV_AT_EPOCH":"3194","FILE":"3184921","MEAN_MOTION_DDOT":"0.0000000000000","INCLINATION":"53.0552","BSTAR":"0.00006815600000","SEMIMAJOR_AXIS":"6925.373","TLE_LINE1":"1 48134U 21027AU  21299.26041155  .00000733  00000-0  68156-4 0  9992","OBJECT_TYPE":"PAYLOAD","CENTER_NAME":"EARTH","COUNTRY_CODE":"US","DECAY_DATE":null},{"OBJECT_NAME":"STARLINK-2478","EPOCH":"2021-10-25T21:56:41.532576","CLASSIFICATION_TYPE":"U","ECCENTRICITY":"0.00019300","MEAN_ELEMENT_THEORY":"SGP4","SITE":"AFETR","TLE_LINE2":"2 48135  53.0548 140.3279 0001930  68.5703 291.5492 15.06404694 31821","MEAN_ANOMALY":"291.5492","RA_OF_ASC_NODE":"140.3279","TLE_LINE1":"1 48135U 21027AV  21298.91436959  .00000718  00000-0  67070-4 0  9991","SEMIMAJOR_AXIS":"6925.334","BSTAR":"0.00006707000000","DECAY_DATE":null,"COUNTRY_CODE":"US","CENTER_NAME":"EARTH","OBJECT_TYPE":"PAYLOAD","ELEMENT_SET_NO":"999","APOAPSIS":"548.536","MEAN_MOTION_DDOT":"0.0000000000000","FILE":"3184921","INCLINATION":"53.0548","REV_AT_EPOCH":"3182","TIME_SYSTEM":"UTC","RCS_SIZE":"LARGE","LAUNCH_DATE":"2021-04-07","MEAN_MOTION_DOT":"0.00000718","MEAN_MOTION":"15.06404694","REF_FRAME":"TEME","PERIOD":"95.592","EPHEMERIS_TYPE":"0","PERIAPSIS":"545.863","NORAD_CAT_ID":"48135","OBJECT_ID":"2021-027AV","ARG_OF_PERICENTER":"68.5703","GP_ID":"188199787"}];
